$$SOE
2460154.500000000, A.D. 2023-Jul-29 00:00:00.0000, -4.890814434233829E+07, 3.230561084979329E+08, -2.555235792251018E+07,
2460161.500000000, A.D. 2023-Aug-05 00:00:00.0000, -6.133249672774078E+07, 3.205778767266644E+08, -2.471015832365604E+07,
2460168.500000000, A.D. 2023-Aug-12 00:00:00.0000, -7.367194230406429E+07, 3.176559517235130E+08, -2.383375729885447E+07,
2460175.500000000, A.D. 2023-Aug-19 00:00:00.0000, -8.590906341600834E+07, 3.142928857514547E+08, -2.292425595022207E+07,
2460182.500000000, A.D. 2023-Aug-26 00:00:00.0000, -9.802651119224179E+07, 3.104920276187311E+08, -2.198282103595023E+07,
2460189.500000000, A.D. 2023-Sep-02 00:00:00.0000, -1.100070505075326E+08, 3.062575228030443E+08, -2.101068270885406E+07,
2460196.500000000, A.D. 2023-Sep-09 00:00:00.0000, -1.218336051750213E+08, 3.015943103114495E+08, -2.000913198044737E+07,
2460203.500000000, A.D. 2023-Sep-16 00:00:00.0000, -1.334893029291767E+08, 2.965081161772653E+08, -1.897951794078179E+07,
2460210.500000000, A.D. 2023-Sep-23 00:00:00.0000, -1.449575195071855E+08, 2.910054438670728E+08, -1.792324476142095E+07,
2460217.500000000, A.D. 2023-Sep-30 00:00:00.0000, -1.562219218925113E+08, 2.850935628044925E+08, -1.684176836862309E+07,
2460224.500000000, A.D. 2023-Oct-07 00:00:00.0000, -1.672665127991802E+08, 2.787804945174603E+08, -1.573659263411325E+07,
2460231.500000000, A.D. 2023-Oct-14 00:00:00.0000, -1.780756750770839E+08, 2.720749931673712E+08, -1.460926546901302E+07,
2460238.500000000, A.D. 2023-Oct-21 00:00:00.0000, -1.886342125439395E+08, 2.649865221506330E+08, -1.346137500554855E+07,
2460245.500000000, A.D. 2023-Oct-28 00:00:00.0000, -1.989273884250321E+08, 2.575252291621022E+08, -1.229454557589906E+07,
2460252.500000000, A.D. 2023-Nov-04 00:00:00.0000, -2.089409624133444E+08, 2.497019191096126E+08, -1.111043346304134E+07,
2460259.500000000, A.D. 2023-Nov-11 00:00:00.0000, -2.186612259494624E+08, 2.415280244558119E+08, -9.910722515000775E+06,
2460266.500000000, A.D. 2023-Nov-18 00:00:00.0000, -2.280750353004977E+08, 2.330155731204807E+08, -8.697119674884826E+06,
2460273.500000000, A.D. 2023-Nov-25 00:00:00.0000, -2.371698421845003E+08, 2.241771541843045E+08, -7.471350459178686E+06,
2460280.500000000, A.D. 2023-Dec-02 00:00:00.0000, -2.459337217507187E+08, 2.150258816165805E+08, -6.235154415162802E+06,
2460287.500000000, A.D. 2023-Dec-09 00:00:00.0000, -2.543553976972819E+08, 2.055753562095343E+08, -4.990280595825270E+06,
2460294.500000000, A.D. 2023-Dec-16 00:00:00.0000, -2.624242641255395E+08, 1.958396259761034E+08, -3.738483103282899E+06,
2460301.500000000, A.D. 2023-Dec-23 00:00:00.0000, -2.701304037051532E+08, 1.858331459469169E+08, -2.481516702347361E+06,
2460308.500000000, A.D. 2023-Dec-30 00:00:00.0000, -2.774646034518281E+08, 1.755707386740995E+08, -1.221132322219804E+06,
2460315.500000000, A.D. 2024-Jan-06 00:00:00.0000, -2.844183698841731E+08, 1.650675533537292E+08, 4.092749666997790E+04,
2460322.500000000, A.D. 2024-Jan-13 00:00:00.0000, -2.909839403936860E+08, 1.543390220358087E+08, 1.302932748257421E+06,
2460329.500000000, A.D. 2024-Jan-20 00:00:00.0000, -2.971542896236490E+08, 1.434008162628442E+08, 2.563169818890929E+06,
2460336.500000000, A.D. 2024-Jan-27 00:00:00.0000, -3.029231329399137E+08, 1.322688050325410E+08, 3.819945278414361E+06,
2460343.500000000, A.D. 2024-Feb-03 00:00:00.0000, -3.082849275020023E+08, 1.209590133753111E+08, 5.071589548934095E+06,
2460350.500000000, A.D. 2024-Feb-10 00:00:00.0000, -3.132348707524219E+08, 1.094875814805388E+08, 6.316460387950823E+06,
2460357.500000000, A.D. 2024-Feb-17 00:00:00.0000, -3.177688962988166E+08, 9.787072458727288E+07, 7.552946162089027E+06,
2460364.500000000, A.D. 2024-Feb-24 00:00:00.0000, -3.218836672834097E+08, 8.612469384600125E+07, 8.779468899677858E+06,
2460371.500000000, A.D. 2024-Mar-02 00:00:00.0000, -3.255765673538471E+08, 7.426573829408185E+07, 9.994487109182999E+06,
2460378.500000000, A.D. 2024-Mar-09 00:00:00.0000, -3.288456892498272E+08, 6.231006803814328E+07, 1.119649833984711E+07,
2460385.500000000, A.D. 2024-Mar-16 00:00:00.0000, -3.316898207711259E+08, 5.027381897589871E+07, 1.238404146037997E+07,
2460392.500000000, A.D. 2024-Mar-23 00:00:00.0000, -3.341084283987743E+08, 3.817302027930170E+07, 1.355569875353783E+07,
2460399.500000000, A.D. 2024-Mar-30 00:00:00.0000, -3.361016409881091E+08, 2.602356470320313E+07, 1.471009802952220E+07,
2460406.500000000, A.D. 2024-Apr-06 00:00:00.0000, -3.376702334664470E+08, 1.384117842583256E+07, 1.584591446135582E+07,
2460413.500000000, A.D. 2024-Apr-13 00:00:00.0000, -3.388156071728117E+08, 1.641391319955860E+06, 1.696187188949369E+07,
2460420.500000000, A.D. 2024-Apr-20 00:00:00.0000, -3.395397679690643E+08, -1.056048962359733E+07, 1.805674390813959E+07,
2460427.500000000, A.D. 2024-Apr-27 00:00:00.0000, -3.398453038147607E+08, -2.274940425823842E+07, 1.912935483350064E+07,
2460434.500000000, A.D. 2024-May-04 00:00:00.0000, -3.397353618943940E+08, -3.491056132413226E+07, 2.017858049645212E+07,
2460441.500000000, A.D. 2024-May-11 00:00:00.0000, -3.392136252268339E+08, -4.702945867518877E+07, 2.120334883873127E+07,
2460448.500000000, A.D. 2024-May-18 00:00:00.0000, -3.382842888319290E+08, -5.909190168572971E+07, 2.220264031692796E+07,
2460455.500000000, A.D. 2024-May-25 00:00:00.0000, -3.369520355775644E+08, -7.108401987474586E+07, 2.317548812189408E+07,
2460462.500000000, A.D. 2024-Jun-01 00:00:00.0000, -3.352220117871772E+08, -8.299228184760062E+07, 2.412097821430455E+07,
2460469.500000000, A.D. 2024-Jun-08 00:00:00.0000, -3.330998024923990E+08, -9.480350863012561E+07, 2.503824916320199E+07,
2460476.500000000, A.D. 2024-Jun-15 00:00:00.0000, -3.305914060524601E+08, -1.065048849099245E+08, 2.592649180696424E+07,
2460483.500000000, A.D. 2024-Jun-22 00:00:00.0000, -3.277032092558327E+08, -1.180839670766259E+08, 2.678494893643550E+07,
2460490.500000000, A.D. 2024-Jun-29 00:00:00.0000, -3.244419651266982E+08, -1.295286899561578E+08, 2.761291505739205E+07,
2460497.500000000, A.D. 2024-Jul-06 00:00:00.0000, -3.208147708862519E+08, -1.408273747899497E+08, 2.840973579948218E+07,
2460504.500000000, A.D. 2024-Jul-13 00:00:00.0000, -3.168290442047722E+08, -1.519687357148727E+08, 2.917480703555444E+07,
2460511.500000000, A.D. 2024-Jul-20 00:00:00.0000, -3.124924998001012E+08, -1.629418836752203E+08, 2.990757399845295E+07,
2460518.500000000, A.D. 2024-Jul-27 00:00:00.0000, -3.078131270970863E+08, -1.737363288106355E+08, 3.060753038699830E+07,
2460525.500000000, A.D. 2024-Aug-03 00:00:00.0000, -3.027991687283306E+08, -1.843419817834159E+08, 3.127421741520298E+07,
2460532.500000000, A.D. 2024-Aug-10 00:00:00.0000, -2.974590997589085E+08, -1.947491541372833E+08, 3.190722279911710E+07,
2460539.500000000, A.D. 2024-Aug-17 00:00:00.0000, -2.918016076282448E+08, -2.049485577500712E+08, 3.250617968847977E+07,
2460546.500000000, A.D. 2024-Aug-24 00:00:00.0000, -2.858355728129468E+08, -2.149313034831398E+08, 3.307076554780138E+07,
2460553.500000000, A.D. 2024-Aug-31 00:00:00.0000, -2.795700501176615E+08, -2.246888991654376E+08, 3.360070097922255E+07,
2460560.500000000, A.D. 2024-Sep-07 00:00:00.0000, -2.730142502414207E+08, -2.342132468583158E+08, 3.409574847061122E+07,
2460567.500000000, A.D. 2024-Sep-14 00:00:00.0000, -2.661775215374359E+08, -2.434966384761307E+08, 3.455571114782213E+07,
2460574.500000000, A.D. 2024-Sep-21 00:00:00.0000, -2.590693339916909E+08, -2.525317494227571E+08, 3.498043175562248E+07,
2460581.500000000, A.D. 2024-Sep-28 00:00:00.0000, -2.516992659040294E+08, -2.613116335478162E+08, 3.536979165348843E+07,
2460588.500000000, A.D. 2024-Oct-05 00:00:00.0000, -2.440769896023451E+08, -2.698297194960941E+08, 3.572370949641742E+07,
2460595.500000000, A.D. 2024-Oct-12 00:00:00.0000, -2.362122565501049E+08, -2.780798055361954E+08, 3.604213988416654E+07,
2460602.500000000, A.D. 2024-Oct-19 00:00:00.0000, -2.281148835907382E+08, -2.860560531954836E+08, 3.632507212282078E+07,
2460609.500000000, A.D. 2024-Oct-26 00:00:00.0000, -2.197947403462096E+08, -2.937529805534820E+08, 3.657252903999406E+07,
2460616.500000000, A.D. 2024-Nov-02 00:00:00.0000, -2.112617374923556E+08, -3.011654553912746E+08, 3.678456582083048E+07,
2460623.500000000, A.D. 2024-Nov-09 00:00:00.0000, -2.025258157927627E+08, -3.082886882244157E+08, 3.696126886047345E+07,
2460630.500000000, A.D. 2024-Nov-16 00:00:00.0000, -1.935969358433732E+08, -3.151182252644110E+08, 3.710275463357900E+07,
2460637.500000000, A.D. 2024-Nov-23 00:00:00.0000, -1.844850684579360E+08, -3.216499413999015E+08, 3.720916857513236E+07,
2460644.500000000, A.D. 2024-Nov-30 00:00:00.0000, -1.752001854616154E+08, -3.278800332777867E+08, 3.728068395216423E+07,
2460651.500000000, A.D. 2024-Dec-07 00:00:00.0000, -1.657522504479960E+08, -3.338050120981125E+08, 3.731750072410356E+07,
2460658.500000000, A.D. 2024-Dec-14 00:00:00.0000, -1.561512101620815E+08, -3.394216949296266E+08, 3.731984455640700E+07,
2460665.500000000, A.D. 2024-Dec-21 00:00:00.0000, -1.464069888004973E+08, -3.447271958141302E+08, 3.728796609965585E+07,
2460672.500000000, A.D. 2024-Dec-28 00:00:00.0000, -1.365294832285367E+08, -3.497189196533983E+08, 3.722214011151834E+07,
2460679.500000000, A.D. 2025-Jan-04 00:00:00.0000, -1.265285564905925E+08, -3.543945565284891E+08, 3.712266437880652E+07,
2460686.500000000, A.D. 2025-Jan-11 00:00:00.0000, -1.164140314100083E+08, -3.587520748138766E+08, 3.698985874351287E+07,
2460693.500000000, A.D. 2025-Jan-18 00:00:00.0000, -1.061956851697430E+08, -3.627897140234659E+08, 3.682406424254297E+07,
2460700.500000000, A.D. 2025-Jan-25 00:00:00.0000, -9.588324460457964E+07, -3.665059778784328E+08, 3.662564230027278E+07,
2460707.500000000, A.D. 2025-Feb-01 00:00:00.0000, -8.548638198925725E+07, -3.698996276403679E+08, 3.639497395393594E+07,
2460714.500000000, A.D. 2025-Feb-08 00:00:00.0000, -7.501471123793203E+07, -3.729696757026278E+08, 3.613245910786512E+07,
2460721.500000000, A.D. 2025-Feb-15 00:00:00.0000, -6.447778446103690E+07, -3.757153794721286E+08, 3.583851581233841E+07,
$$EOE